[{"OBJECT_NAME":"FENGYUN 1C DEB","OBJECT_ID":"1999-025AJM","EPOCH":"2026-03-14T22:14:55.600224","MEAN_MOTION":14.2814142,"ECCENTRICITY":0.02420354,"INCLINATION":98.4789,"RA_OF_ASC_NODE":54.6152,"ARG_OF_PERICENTER":197.104,"MEAN_ANOMALY":189.3175,"EPHEMERIS_TYPE":0,"CLASSIFICATION_TYPE":"U","NORAD_CAT_ID":30523,"ELEMENT_SET_NO":999,"REV_AT_EPOCH":99416,"BSTAR":0.00015258634,"MEAN_MOTION_DOT":4.69e-6,"MEAN_MOTION_DDOT":0},{"OBJECT_NAME":"FENGYUN 1C DEB","OBJECT_ID":"1999-025AJN","EPOCH":"2026-03-14T10:44:19.194432","MEAN_MOTION":13.9354174,"ECCENTRICITY":0.0200221,"INCLINATION":99.3148,"RA_OF_ASC_NODE":251.1534,"ARG_OF_PERICENTER":1.8692,"MEAN_ANOMALY":358.3173,"EPHEMERIS_TYPE":0,"CLASSIFICATION_TYPE":"U","NORAD_CAT_ID":30524,"ELEMENT_SET_NO":999,"REV_AT_EPOCH":95162,"BSTAR":0.0030268052,"MEAN_MOTION_DOT":4.642e-5,"MEAN_MOTION_DDOT":0},{"OBJECT_NAME":"FENGYUN 1C DEB","OBJECT_ID":"1999-025AJP","EPOCH":"2026-03-13T14:45:41.558976","MEAN_MOTION":13.58901058,"ECCENTRICITY":0.0293133,"INCLINATION":98.6009,"RA_OF_ASC_NODE":311.6997,"ARG_OF_PERICENTER":71.5383,"MEAN_ANOMALY":291.7382,"EPHEMERIS_TYPE":0,"CLASSIFICATION_TYPE":"U","NORAD_CAT_ID":30525,"ELEMENT_SET_NO":999,"REV_AT_EPOCH":94351,"BSTAR":0.0021544716,"MEAN_MOTION_DOT":2.059e-5,"MEAN_MOTION_DDOT":0},{"OBJECT_NAME":"FENGYUN 1C DEB","OBJECT_ID":"1999-025AJQ","EPOCH":"2026-03-14T22:42:33.719904","MEAN_MOTION":13.50023252,"ECCENTRICITY":0.03036732,"INCLINATION":99.5365,"RA_OF_ASC_NODE":157.4808,"ARG_OF_PERICENTER":34.6416,"MEAN_ANOMALY":327.4096,"EPHEMERIS_TYPE":0,"CLASSIFICATION_TYPE":"U","NORAD_CAT_ID":30526,"ELEMENT_SET_NO":999,"REV_AT_EPOCH":93902,"BSTAR":0.00021944319,"MEAN_MOTION_DOT":1.44e-6,"MEAN_MOTION_DDOT":0},{"OBJECT_NAME":"FENGYUN 1C DEB","OBJECT_ID":"1999-025AJR","EPOCH":"2026-03-14T18:40:30.224640","MEAN_MOTION":13.31248552,"ECCENTRICITY":0.04087369,"INCLINATION":100.052,"RA_OF_ASC_NODE":120.2909,"ARG_OF_PERICENTER":7.8294,"MEAN_ANOMALY":56.6508,"EPHEMERIS_TYPE":0,"CLASSIFICATION_TYPE":"U","NORAD_CAT_ID":30527,"ELEMENT_SET_NO":999,"REV_AT_EPOCH":92581,"BSTAR":0.0012273864,"MEAN_MOTION_DOT":8.86e-6,"MEAN_MOTION_DDOT":0},{"OBJECT_NAME":"FENGYUN 1C DEB","OBJECT_ID":"1999-025AJS","EPOCH":"2026-03-14T13:53:38.332896","MEAN_MOTION":14.13644713,"ECCENTRICITY":0.01434379,"INCLINATION":98.2286,"RA_OF_ASC_NODE":300.9708,"ARG_OF_PERICENTER":321.2145,"MEAN_ANOMALY":67.2348,"EPHEMERIS_TYPE":0,"CLASSIFICATION_TYPE":"U","NORAD_CAT_ID":30528,"ELEMENT_SET_NO":999,"REV_AT_EPOCH":98435,"BSTAR":0.00038776112,"MEAN_MOTION_DOT":7.67e-6,"MEAN_MOTION_DDOT":0},{"OBJECT_NAME":"FENGYUN 1C DEB","OBJECT_ID":"1999-025AJT","EPOCH":"2026-03-14T16:49:01.706880","MEAN_MOTION":13.71888853,"ECCENTRICITY":0.02319043,"INCLINATION":98.4883,"RA_OF_ASC_NODE":350.085,"ARG_OF_PERICENTER":336.3302,"MEAN_ANOMALY":22.7313,"EPHEMERIS_TYPE":0,"CLASSIFICATION_TYPE":"U","NORAD_CAT_ID":30529,"ELEMENT_SET_NO":999,"REV_AT_EPOCH":95269,"BSTAR":0.001780804,"MEAN_MOTION_DOT":1.917e-5,"MEAN_MOTION_DDOT":0},{"OBJECT_NAME":"FENGYUN 1C DEB","OBJECT_ID":"1999-025AJU","EPOCH":"2026-03-14T21:24:15.285312","MEAN_MOTION":14.36944958,"ECCENTRICITY":0.009851,"INCLINATION":98.383,"RA_OF_ASC_NODE":114.9604,"ARG_OF_PERICENTER":221.1118,"MEAN_ANOMALY":316.7545,"EPHEMERIS_TYPE":0,"CLASSIFICATION_TYPE":"U","NORAD_CAT_ID":30530,"ELEMENT_SET_NO":999,"REV_AT_EPOCH":109,"BSTAR":0.00022863547,"MEAN_MOTION_DOT":6.71e-6,"MEAN_MOTION_DDOT":0},{"OBJECT_NAME":"FENGYUN 1C DEB","OBJECT_ID":"1999-025AJV","EPOCH":"2026-03-13T21:21:41.764608","MEAN_MOTION":14.65934304,"ECCENTRICITY":0.00277779,"INCLINATION":102.3125,"RA_OF_ASC_NODE":308.5749,"ARG_OF_PERICENTER":317.8502,"MEAN_ANOMALY":42.055,"EPHEMERIS_TYPE":0,"CLASSIFICATION_TYPE":"U","NORAD_CAT_ID":30531,"ELEMENT_SET_NO":999,"REV_AT_EPOCH":99029,"BSTAR":0.0038276439,"MEAN_MOTION_DOT":0.00021045,"MEAN_MOTION_DDOT":0},{"OBJECT_NAME":"FENGYUN 1C DEB","OBJECT_ID":"1999-025AJX","EPOCH":"2026-03-14T19:59:25.159776","MEAN_MOTION":14.5643318,"ECCENTRICITY":0.00790988,"INCLINATION":98.8346,"RA_OF_ASC_NODE":212.8824,"ARG_OF_PERICENTER":227.3648,"MEAN_ANOMALY":298.2046,"EPHEMERIS_TYPE":0,"CLASSIFICATION_TYPE":"U","NORAD_CAT_ID":30533,"ELEMENT_SET_NO":999,"REV_AT_EPOCH":99160,"BSTAR":0.0042142679,"MEAN_MOTION_DOT":0.00019525,"MEAN_MOTION_DDOT":0},{"OBJECT_NAME":"FENGYUN 1C DEB","OBJECT_ID":"1999-025AKD","EPOCH":"2026-03-14T22:53:25.370304","MEAN_MOTION":14.55988313,"ECCENTRICITY":0.01155828,"INCLINATION":98.8898,"RA_OF_ASC_NODE":65.2961,"ARG_OF_PERICENTER":356.1071,"MEAN_ANOMALY":3.9214,"EPHEMERIS_TYPE":0,"CLASSIFICATION_TYPE":"U","NORAD_CAT_ID":30539,"ELEMENT_SET_NO":999,"REV_AT_EPOCH":685,"BSTAR":0.00076644394,"MEAN_MOTION_DOT":3.633e-5,"MEAN_MOTION_DDOT":0},{"OBJECT_NAME":"FENGYUN 1C DEB","OBJECT_ID":"1999-025AKE","EPOCH":"2026-03-14T19:19:58.736352","MEAN_MOTION":14.33425931,"ECCENTRICITY":0.00544071,"INCLINATION":98.8758,"RA_OF_ASC_NODE":189.4003,"ARG_OF_PERICENTER":151.4531,"MEAN_ANOMALY":0.0386,"EPHEMERIS_TYPE":0,"CLASSIFICATION_TYPE":"U","NORAD_CAT_ID":30540,"ELEMENT_SET_NO":999,"REV_AT_EPOCH":98604,"BSTAR":0.0024303259,"MEAN_MOTION_DOT":6.78e-5,"MEAN_MOTION_DDOT":0},{"OBJECT_NAME":"FENGYUN 1C DEB","OBJECT_ID":"1999-025AKF","EPOCH":"2026-03-12T13:47:49.510176","MEAN_MOTION":14.23508912,"ECCENTRICITY":0.001885,"INCLINATION":98.6837,"RA_OF_ASC_NODE":121.9798,"ARG_OF_PERICENTER":179.4462,"MEAN_ANOMALY":180.674,"EPHEMERIS_TYPE":0,"CLASSIFICATION_TYPE":"U","NORAD_CAT_ID":30541,"ELEMENT_SET_NO":999,"REV_AT_EPOCH":98605,"BSTAR":0.00090186,"MEAN_MOTION_DOT":2.011e-5,"MEAN_MOTION_DDOT":0},{"OBJECT_NAME":"FENGYUN 1C DEB","OBJECT_ID":"1999-025AKG","EPOCH":"2026-03-14T14:17:31.035840","MEAN_MOTION":14.07027777,"ECCENTRICITY":0.00290588,"INCLINATION":98.7767,"RA_OF_ASC_NODE":104.708,"ARG_OF_PERICENTER":75.0846,"MEAN_ANOMALY":78.9875,"EPHEMERIS_TYPE":0,"CLASSIFICATION_TYPE":"U","NORAD_CAT_ID":30542,"ELEMENT_SET_NO":999,"REV_AT_EPOCH":98210,"BSTAR":0.00016842751,"MEAN_MOTION_DOT":2.4e-6,"MEAN_MOTION_DDOT":0},{"OBJECT_NAME":"FENGYUN 1C DEB","OBJECT_ID":"1999-025AKH","EPOCH":"2026-03-14T16:51:17.422272","MEAN_MOTION":14.03816388,"ECCENTRICITY":0.00727875,"INCLINATION":98.8317,"RA_OF_ASC_NODE":85.6684,"ARG_OF_PERICENTER":135.3868,"MEAN_ANOMALY":291.4528,"EPHEMERIS_TYPE":0,"CLASSIFICATION_TYPE":"U","NORAD_CAT_ID":30543,"ELEMENT_SET_NO":999,"REV_AT_EPOCH":97795,"BSTAR":0.00021836034,"MEAN_MOTION_DOT":3.1e-6,"MEAN_MOTION_DDOT":0},{"OBJECT_NAME":"FENGYUN 1C DEB","OBJECT_ID":"1999-025AKK","EPOCH":"2026-03-12T01:19:59.176992","MEAN_MOTION":13.20855608,"ECCENTRICITY":0.04725359,"INCLINATION":98.9962,"RA_OF_ASC_NODE":275.992,"ARG_OF_PERICENTER":154.4362,"MEAN_ANOMALY":208.0963,"EPHEMERIS_TYPE":0,"CLASSIFICATION_TYPE":"U","NORAD_CAT_ID":30545,"ELEMENT_SET_NO":999,"REV_AT_EPOCH":92109,"BSTAR":0.00052501374,"MEAN_MOTION_DOT":3.51e-6,"MEAN_MOTION_DDOT":0}]
