FENGYUN 1C DEB          
1 30523U 99025AJM 26073.92703241  .00000469  00000+0  15259-3 0  9997
2 30523  98.4789  54.6152 0242035 197.1040 189.3175 14.28141420994161
FENGYUN 1C DEB          
1 30524U 99025AJN 26073.44744438  .00004642  00000+0  30268-2 0  9991
2 30524  99.3148 251.1534 0200221   1.8692 358.3173 13.93541740951624
FENGYUN 1C DEB          
1 30525U 99025AJP 26072.61506434  .00002059  00000+0  21545-2 0  9990
2 30525  98.6009 311.6997 0293133  71.5383 291.7382 13.58901058943517
FENGYUN 1C DEB          
1 30526U 99025AJQ 26073.94622361  .00000144  00000+0  21944-3 0  9993
2 30526  99.5365 157.4808 0303673  34.6416 327.4096 13.50023252939021
FENGYUN 1C DEB          
1 30527U 99025AJR 26073.77812760  .00000886  00000+0  12274-2 0  9997
2 30527 100.0520 120.2909 0408736   7.8294  56.6508 13.31248552925817
FENGYUN 1C DEB          
1 30528U 99025AJS 26073.57891589  .00000767  00000+0  38776-3 0  9996
2 30528  98.2286 300.9708 0143437 321.2145  67.2348 14.13644713984355
FENGYUN 1C DEB          
1 30529U 99025AJT 26073.70071420  .00001917  00000+0  17808-2 0  9996
2 30529  98.4883 350.0850 0231904 336.3302  22.7313 13.71888853952692
FENGYUN 1C DEB          
1 30530U 99025AJU 26073.89184358  .00000671  00000+0  22864-3 0  9998
2 30530  98.3830 114.9604 0098510 221.1118 316.7545 14.36944958  1092
FENGYUN 1C DEB          
1 30531U 99025AJV 26072.89006672  .00021045  00000+0  38276-2 0  9991
2 30531 102.3125 308.5749 0027777 317.8502  42.0550 14.65934304990294
FENGYUN 1C DEB          
1 30533U 99025AJX 26073.83293009  .00019525  00000+0  42143-2 0  9998
2 30533  98.8346 212.8824 0079098 227.3648 298.2046 14.56433180991607
FENGYUN 1C DEB          
1 30539U 99025AKD 26073.95376586  .00003633  00000+0  76644-3 0  9996
2 30539  98.8898  65.2961 0115582 356.1071   3.9214 14.55988313  6851
FENGYUN 1C DEB          
1 30540U 99025AKE 26073.80554093  .00006780  00000+0  24303-2 0  9993
2 30540  98.8758 189.4003 0054407 151.4531   0.0386 14.33425931986043
FENGYUN 1C DEB          
1 30541U 99025AKF 26071.57487859  .00002011  00000+0  90186-3 0  9997
2 30541  98.6837 121.9798 0018850 179.4462 180.6740 14.23508912986057
FENGYUN 1C DEB          
1 30542U 99025AKG 26073.59549810  .00000240  00000+0  16843-3 0  9998
2 30542  98.7767 104.7080 0029058  75.0846  78.9875 14.07027777982100
FENGYUN 1C DEB          
1 30543U 99025AKH 26073.70228498  .00000310  00000+0  21836-3 0  9994
2 30543  98.8317  85.6684 0072787 135.3868 291.4528 14.03816388977955
FENGYUN 1C DEB          
1 30545U 99025AKK 26071.05554603  .00000351  00000+0  52501-3 0  9990
2 30545  98.9962 275.9920 0472535 154.4362 208.0963 13.20855608921094
